IRIDIUM 151             
1 43074U 17083E   26066.57494448 -.00000060  00000+0 -28632-4 0  9994
2 43074  86.4018   4.5193 0002074  86.2427 273.9006 14.34217081429576
IRIDIUM 134             
1 43075U 17083F   26066.33392553 -.00000058  00000+0 -27716-4 0  9992
2 43075  86.4021   4.6264 0001939  85.5610 274.5807 14.34216865429504
IRIDIUM 137             
1 43076U 17083G   26066.34661164 -.00000021  00000+0 -14519-4 0  9998
2 43076  86.4018   4.7117 0002299  96.3561 263.7897 14.34217289429571
IRIDIUM 141             
1 43077U 17083H   26066.34027206  .00000347  00000+0  11696-3 0  9993
2 43077  86.4021   4.5508 0002225  82.5283 277.6166 14.34221122429579
IRIDIUM 153             
1 43078U 17083J   26066.29244733  .00000331  00000+0  11102-3 0  9999
2 43078  86.4023 333.0837 0002104  76.3384 283.8046 14.34217431430673
IRIDIUM 131             
1 43079U 17083K   26066.32758217  .00000435  00000+0  14818-3 0  9993
2 43079  86.4028   4.7352 0002272  84.6356 275.5099 14.34216983429507
IRIDIUM 144             
1 43249U 18030A   26066.22902098 -.00000006  00000+0 -93152-5 0  9998
2 43249  86.4007 333.0424 0001971  89.5290 270.6131 14.34217469415527
IRIDIUM 149             
1 43250U 18030B   26066.65397478 -.00000001  00000+0 -73643-5 0  9995
2 43250  86.4008 332.8333 0002058  83.1067 277.0363 14.34217481415606
IRIDIUM 157             
1 43251U 18030C   26066.25438947  .00000162  00000+0  50609-4 0  9991
2 43251  86.4012 333.0511 0002157  84.4498 275.6944 14.34218985415525
IRIDIUM 140             
1 43252U 18030D   26066.27341888  .00000042  00000+0  81106-5 0  9995
2 43252  86.4012 333.0561 0001991  84.4321 275.7102 14.34217850415584
IRIDIUM 145             
1 43253U 18030E   26066.26072537  .00000405  00000+0  13741-3 0  9998
2 43253  86.4011 333.0338 0001925  94.9028 265.2387 14.34221856415516
IRIDIUM 146             
1 43254U 18030F   26066.45101143  .00000301  00000+0  10029-3 0  9997
2 43254  86.4012 332.9668 0002144  89.0505 271.0937 14.34217175415550
IRIDIUM 148             
1 43255U 18030G   26066.48906773 -.00000107  00000+0 -45317-4 0  9998
2 43255  86.4010 332.9925 0002083  86.3948 273.7486 14.34216947415596
IRIDIUM 142             
1 43256U 18030H   26066.24804857 -.00000024  00000+0 -15639-4 0  9995
2 43256  86.4007 332.9858 0001885  92.9891 267.1520 14.34217318415529
IRIDIUM 150             
1 43257U 18030J   26066.49540904  .00000145  00000+0  44568-4 0  9998
2 43257  86.4012 332.9957 0002054  85.9429 274.2002 14.34218139415586
IRIDIUM 143             
1 43258U 18030K   26066.26707635 -.00000052  00000+0 -25685-4 0  9998
2 43258  86.4013 333.1792 0001926  89.8208 270.3209 14.34217252415483
IRIDIUM 161             
1 43478U 18047C   26066.46064226  .00000445  00000+0  12624-3 0  9996
2 43478  86.4505 131.0145 0002512  91.1365 269.0124 14.43286278410460
