[{"OBJECT_NAME":"IRIDIUM 151","OBJECT_ID":"2017-083E","EPOCH":"2026-03-07T13:47:55.203072","MEAN_MOTION":14.34217081,"ECCENTRICITY":0.00020746,"INCLINATION":86.4018,"RA_OF_ASC_NODE":4.5193,"ARG_OF_PERICENTER":86.2427,"MEAN_ANOMALY":273.9006,"EPHEMERIS_TYPE":0,"CLASSIFICATION_TYPE":"U","NORAD_CAT_ID":43074,"ELEMENT_SET_NO":999,"REV_AT_EPOCH":42957,"BSTAR":-2.8632175e-5,"MEAN_MOTION_DOT":-6.0e-7,"MEAN_MOTION_DDOT":0},{"OBJECT_NAME":"IRIDIUM 134","OBJECT_ID":"2017-083F","EPOCH":"2026-03-07T08:00:51.165792","MEAN_MOTION":14.34216865,"ECCENTRICITY":0.00019394,"INCLINATION":86.4021,"RA_OF_ASC_NODE":4.6264,"ARG_OF_PERICENTER":85.561,"MEAN_ANOMALY":274.5807,"EPHEMERIS_TYPE":0,"CLASSIFICATION_TYPE":"U","NORAD_CAT_ID":43075,"ELEMENT_SET_NO":999,"REV_AT_EPOCH":42950,"BSTAR":-2.7716089e-5,"MEAN_MOTION_DOT":-5.8e-7,"MEAN_MOTION_DDOT":0},{"OBJECT_NAME":"IRIDIUM 137","OBJECT_ID":"2017-083G","EPOCH":"2026-03-07T08:19:07.245696","MEAN_MOTION":14.34217289,"ECCENTRICITY":0.00022994,"INCLINATION":86.4018,"RA_OF_ASC_NODE":4.7117,"ARG_OF_PERICENTER":96.3561,"MEAN_ANOMALY":263.7897,"EPHEMERIS_TYPE":0,"CLASSIFICATION_TYPE":"U","NORAD_CAT_ID":43076,"ELEMENT_SET_NO":999,"REV_AT_EPOCH":42957,"BSTAR":-1.4519292e-5,"MEAN_MOTION_DOT":-2.1e-7,"MEAN_MOTION_DDOT":0},{"OBJECT_NAME":"IRIDIUM 141","OBJECT_ID":"2017-083H","EPOCH":"2026-03-07T08:09:59.505984","MEAN_MOTION":14.34221122,"ECCENTRICITY":0.0002225,"INCLINATION":86.4021,"RA_OF_ASC_NODE":4.5508,"ARG_OF_PERICENTER":82.5283,"MEAN_ANOMALY":277.6166,"EPHEMERIS_TYPE":0,"CLASSIFICATION_TYPE":"U","NORAD_CAT_ID":43077,"ELEMENT_SET_NO":999,"REV_AT_EPOCH":42957,"BSTAR":0.00011696174,"MEAN_MOTION_DOT":3.47e-6,"MEAN_MOTION_DDOT":0},{"OBJECT_NAME":"IRIDIUM 153","OBJECT_ID":"2017-083J","EPOCH":"2026-03-07T07:01:07.449312","MEAN_MOTION":14.34217431,"ECCENTRICITY":0.0002104,"INCLINATION":86.4023,"RA_OF_ASC_NODE":333.0837,"ARG_OF_PERICENTER":76.3384,"MEAN_ANOMALY":283.8046,"EPHEMERIS_TYPE":0,"CLASSIFICATION_TYPE":"U","NORAD_CAT_ID":43078,"ELEMENT_SET_NO":999,"REV_AT_EPOCH":43067,"BSTAR":0.00011102,"MEAN_MOTION_DOT":3.31e-6,"MEAN_MOTION_DDOT":0},{"OBJECT_NAME":"IRIDIUM 131","OBJECT_ID":"2017-083K","EPOCH":"2026-03-07T07:51:43.099488","MEAN_MOTION":14.34216983,"ECCENTRICITY":0.00022722,"INCLINATION":86.4028,"RA_OF_ASC_NODE":4.7352,"ARG_OF_PERICENTER":84.6356,"MEAN_ANOMALY":275.5099,"EPHEMERIS_TYPE":0,"CLASSIFICATION_TYPE":"U","NORAD_CAT_ID":43079,"ELEMENT_SET_NO":999,"REV_AT_EPOCH":42950,"BSTAR":0.00014817874,"MEAN_MOTION_DOT":4.35e-6,"MEAN_MOTION_DDOT":0},{"OBJECT_NAME":"IRIDIUM 144","OBJECT_ID":"2018-030A","EPOCH":"2026-03-07T05:29:47.412672","MEAN_MOTION":14.34217469,"ECCENTRICITY":0.0001971,"INCLINATION":86.4007,"RA_OF_ASC_NODE":333.0424,"ARG_OF_PERICENTER":89.529,"MEAN_ANOMALY":270.6131,"EPHEMERIS_TYPE":0,"CLASSIFICATION_TYPE":"U","NORAD_CAT_ID":43249,"ELEMENT_SET_NO":999,"REV_AT_EPOCH":41552,"BSTAR":-9.3152e-6,"MEAN_MOTION_DOT":-6.0e-8,"MEAN_MOTION_DDOT":0},{"OBJECT_NAME":"IRIDIUM 149","OBJECT_ID":"2018-030B","EPOCH":"2026-03-07T15:41:43.420992","MEAN_MOTION":14.34217481,"ECCENTRICITY":0.00020588,"INCLINATION":86.4008,"RA_OF_ASC_NODE":332.8333,"ARG_OF_PERICENTER":83.1067,"MEAN_ANOMALY":277.0363,"EPHEMERIS_TYPE":0,"CLASSIFICATION_TYPE":"U","NORAD_CAT_ID":43250,"ELEMENT_SET_NO":999,"REV_AT_EPOCH":41560,"BSTAR":-7.364273e-6,"MEAN_MOTION_DOT":-1.0e-8,"MEAN_MOTION_DDOT":0},{"OBJECT_NAME":"IRIDIUM 157","OBJECT_ID":"2018-030C","EPOCH":"2026-03-07T06:06:19.250208","MEAN_MOTION":14.34218985,"ECCENTRICITY":0.0002157,"INCLINATION":86.4012,"RA_OF_ASC_NODE":333.0511,"ARG_OF_PERICENTER":84.4498,"MEAN_ANOMALY":275.6944,"EPHEMERIS_TYPE":0,"CLASSIFICATION_TYPE":"U","NORAD_CAT_ID":43251,"ELEMENT_SET_NO":999,"REV_AT_EPOCH":41552,"BSTAR":5.0609e-5,"MEAN_MOTION_DOT":1.62e-6,"MEAN_MOTION_DDOT":0},{"OBJECT_NAME":"IRIDIUM 140","OBJECT_ID":"2018-030D","EPOCH":"2026-03-07T06:33:43.391232","MEAN_MOTION":14.3421785,"ECCENTRICITY":0.0001991,"INCLINATION":86.4012,"RA_OF_ASC_NODE":333.0561,"ARG_OF_PERICENTER":84.4321,"MEAN_ANOMALY":275.7102,"EPHEMERIS_TYPE":0,"CLASSIFICATION_TYPE":"U","NORAD_CAT_ID":43252,"ELEMENT_SET_NO":999,"REV_AT_EPOCH":41558,"BSTAR":8.1106e-6,"MEAN_MOTION_DOT":4.2e-7,"MEAN_MOTION_DDOT":0},{"OBJECT_NAME":"IRIDIUM 145","OBJECT_ID":"2018-030E","EPOCH":"2026-03-07T06:15:26.671968","MEAN_MOTION":14.34221856,"ECCENTRICITY":0.0001925,"INCLINATION":86.4011,"RA_OF_ASC_NODE":333.0338,"ARG_OF_PERICENTER":94.9028,"MEAN_ANOMALY":265.2387,"EPHEMERIS_TYPE":0,"CLASSIFICATION_TYPE":"U","NORAD_CAT_ID":43253,"ELEMENT_SET_NO":999,"REV_AT_EPOCH":41551,"BSTAR":0.00013741,"MEAN_MOTION_DOT":4.05e-6,"MEAN_MOTION_DDOT":0},{"OBJECT_NAME":"IRIDIUM 146","OBJECT_ID":"2018-030F","EPOCH":"2026-03-07T10:49:27.387552","MEAN_MOTION":14.34217175,"ECCENTRICITY":0.00021447,"INCLINATION":86.4012,"RA_OF_ASC_NODE":332.9668,"ARG_OF_PERICENTER":89.0505,"MEAN_ANOMALY":271.0937,"EPHEMERIS_TYPE":0,"CLASSIFICATION_TYPE":"U","NORAD_CAT_ID":43254,"ELEMENT_SET_NO":999,"REV_AT_EPOCH":41555,"BSTAR":0.0001002876,"MEAN_MOTION_DOT":3.01e-6,"MEAN_MOTION_DDOT":0},{"OBJECT_NAME":"IRIDIUM 148","OBJECT_ID":"2018-030G","EPOCH":"2026-03-07T11:44:15.451872","MEAN_MOTION":14.34216947,"ECCENTRICITY":0.00020837,"INCLINATION":86.401,"RA_OF_ASC_NODE":332.9925,"ARG_OF_PERICENTER":86.3948,"MEAN_ANOMALY":273.7486,"EPHEMERIS_TYPE":0,"CLASSIFICATION_TYPE":"U","NORAD_CAT_ID":43255,"ELEMENT_SET_NO":999,"REV_AT_EPOCH":41559,"BSTAR":-4.5317361e-5,"MEAN_MOTION_DOT":-1.07e-6,"MEAN_MOTION_DDOT":0},{"OBJECT_NAME":"IRIDIUM 142","OBJECT_ID":"2018-030H","EPOCH":"2026-03-07T05:57:11.396448","MEAN_MOTION":14.34217318,"ECCENTRICITY":0.0001885,"INCLINATION":86.4007,"RA_OF_ASC_NODE":332.9858,"ARG_OF_PERICENTER":92.9891,"MEAN_ANOMALY":267.152,"EPHEMERIS_TYPE":0,"CLASSIFICATION_TYPE":"U","NORAD_CAT_ID":43256,"ELEMENT_SET_NO":999,"REV_AT_EPOCH":41552,"BSTAR":-1.5639e-5,"MEAN_MOTION_DOT":-2.4e-7,"MEAN_MOTION_DDOT":0},{"OBJECT_NAME":"IRIDIUM 150","OBJECT_ID":"2018-030J","EPOCH":"2026-03-07T11:53:23.341056","MEAN_MOTION":14.34218139,"ECCENTRICITY":0.00020549,"INCLINATION":86.4012,"RA_OF_ASC_NODE":332.9957,"ARG_OF_PERICENTER":85.9429,"MEAN_ANOMALY":274.2002,"EPHEMERIS_TYPE":0,"CLASSIFICATION_TYPE":"U","NORAD_CAT_ID":43257,"ELEMENT_SET_NO":999,"REV_AT_EPOCH":41558,"BSTAR":4.456762e-5,"MEAN_MOTION_DOT":1.45e-6,"MEAN_MOTION_DDOT":0},{"OBJECT_NAME":"IRIDIUM 143","OBJECT_ID":"2018-030K","EPOCH":"2026-03-07T06:24:35.396640","MEAN_MOTION":14.34217252,"ECCENTRICITY":0.0001926,"INCLINATION":86.4013,"RA_OF_ASC_NODE":333.1792,"ARG_OF_PERICENTER":89.8208,"MEAN_ANOMALY":270.3209,"EPHEMERIS_TYPE":0,"CLASSIFICATION_TYPE":"U","NORAD_CAT_ID":43258,"ELEMENT_SET_NO":999,"REV_AT_EPOCH":41548,"BSTAR":-2.5685e-5,"MEAN_MOTION_DOT":-5.2e-7,"MEAN_MOTION_DDOT":0},{"OBJECT_NAME":"IRIDIUM 161","OBJECT_ID":"2018-047C","EPOCH":"2026-03-07T11:03:19.491264","MEAN_MOTION":14.43286278,"ECCENTRICITY":0.00025123,"INCLINATION":86.4505,"RA_OF_ASC_NODE":131.0145,"ARG_OF_PERICENTER":91.1365,"MEAN_ANOMALY":269.0124,"EPHEMERIS_TYPE":0,"CLASSIFICATION_TYPE":"U","NORAD_CAT_ID":43478,"ELEMENT_SET_NO":999,"REV_AT_EPOCH":41046,"BSTAR":0.00012623943,"MEAN_MOTION_DOT":4.45e-6,"MEAN_MOTION_DDOT":0}]
